NORAD_CAT_ID,OBJECT_NAME,OBJECT_TYPE,EPOCH,MEAN_MOTION,ECCENTRICITY,INCLINATION,RA_OF_ASC_NODE,ARG_OF_PERICENTER,MEAN_ANOMALY,BSTAR,MEAN_MOTION_DOT,MEAN_MOTION_DDOT,TLE_LINE0,TLE_LINE1,TLE_LINE2,SEMIMAJOR_AXIS,PERIOD,APOGEE,PERIGEE,DECAYED
56780.0,STARLINK-5963,PAYLOAD,2024-06-04 10:37:20,14.98334546,0.0003138,69.9981,166.4996,269.8323,90.2477,7.5942e-05,8.13e-06,0.0,0 STARLINK-5963,1 56780U 23078P   24156.44259763  .00000813  00000-0  75942-4 0  9997,2 56780  69.9981 166.4996 0003138 269.8323  90.2477 14.98334546 56589,6950.179,96.107,574.225,569.863,0.0
56780.0,STARLINK-5963,PAYLOAD,2024-06-04 18:38:00,14.98332962,0.0003125,69.9982,165.6579,269.8999,90.1802,7.2182e-05,7.68e-06,0.0,0 STARLINK-5963,1 56780U 23078P   24156.77639844  .00000768  00000-0  72182-4 0  9997,2 56780  69.9982 165.6579 0003125 269.8999  90.1802 14.98332962 56371,6950.184,96.107,574.221,569.877,0.0
56780.0,STARLINK-5963,PAYLOAD,2024-06-05 10:39:21,14.98332255,0.0003139,69.9983,163.9748,269.945,90.1349,7.0837e-05,7.52e-06,0.0,0 STARLINK-5963,1 56780U 23078P   24157.44399808  .00000752  00000-0  70837-4 0  9993,2 56780  69.9983 163.9748 0003139 269.9450  90.1349 14.98332255 56730,6950.186,96.107,574.233,569.869,0.0
56780.0,STARLINK-5963,PAYLOAD,2024-06-06 10:41:22,14.9833238,0.0003081,69.9986,161.45,270.1402,89.9404,3.261e-05,2.96e-06,0.0,0 STARLINK-5963,1 56780U 23078P   24158.44539826  .00000296  00000-0  32610-4 0  9990,2 56780  69.9986 161.4500 0003081 270.1402  89.9404 14.98332380 56882,6950.186,96.107,574.192,569.909,0.0
56780.0,STARLINK-5963,PAYLOAD,2024-06-07 09:07:15,14.98332155,0.0003054,69.9989,159.0938,269.8772,90.2037,5.1413e-05,5.21e-06,0.0,0 STARLINK-5963,1 56780U 23078P   24159.38003722  .00000521  00000-0  51413-4 0  9998,2 56780  69.9989 159.0938 0003054 269.8772  90.2037 14.98332155 56762,6950.186,96.107,574.174,569.929,0.0
56780.0,STARLINK-5963,PAYLOAD,2024-06-07 17:07:55,14.98338611,0.0003096,69.999,158.252,270.6964,89.384,-7.5351e-05,-9.92e-06,0.0,0 STARLINK-5963,1 56780U 23078P   24159.71383529 -.00000992  00000-0 -75351-4 0  9992,2 56780  69.9990 158.2520 0003096 270.6964  89.3840 14.98338611 57070,6950.166,96.106,574.183,569.879,0.0
56780.0,STARLINK-5963,PAYLOAD,2024-06-08 09:09:16,14.98331493,0.0003028,69.9989,156.569,269.9465,90.1348,5.7755e-05,5.96e-06,0.0,0 STARLINK-5963,1 56780U 23078P   24160.38143720  .00000596  00000-0  57755-4 0  9990,2 56780  69.9989 156.5690 0003028 269.9465  90.1348 14.98331493 56915,6950.188,96.107,574.158,569.949,0.0
56780.0,STARLINK-5963,PAYLOAD,2024-06-08 17:09:56,14.98330429,0.0003014,69.999,155.7273,269.8478,90.2336,4.0286e-05,3.88e-06,0.0,0 STARLINK-5963,1 56780U 23078P   24160.71523810  .00000388  00000-0  40286-4 0  9999,2 56780  69.9990 155.7273 0003014 269.8478  90.2336 14.98330429 57224,6950.192,96.107,574.151,569.962,0.0
56780.0,STARLINK-5963,PAYLOAD,2024-06-09 09:11:17,14.98331712,0.000302,69.9991,154.0442,269.0298,91.0515,4.1217e-05,3.99e-06,0.0,0 STARLINK-5963,1 56780U 23078P   24161.38283692  .00000399  00000-0  41217-4 0  9991,2 56780  69.9991 154.0442 0003020 269.0298  91.0515 14.98331712 57060,6950.188,96.107,574.152,569.954,0.0
56780.0,STARLINK-5963,PAYLOAD,2024-06-09 17:11:57,14.98330338,0.0003045,69.999,153.2022,269.2339,90.8471,2.7961e-05,2.41e-06,0.0,0 STARLINK-5963,1 56780U 23078P   24161.71663788  .00000241  00000-0  27961-4 0  9992,2 56780  69.9990 153.2022 0003045 269.2339  90.8471 14.98330338 57374,6950.192,96.107,574.173,569.941,0.0
56780.0,STARLINK-5963,PAYLOAD,2024-06-10 09:13:18,14.98330655,0.0003075,69.9989,151.5191,269.4375,90.6432,3.7737e-05,3.57e-06,0.0,0 STARLINK-5963,1 56780U 23078P   24162.38423741  .00000357  00000-0  37737-4 0  9999,2 56780  69.9989 151.5191 0003075 269.4375  90.6432 14.98330655 57215,6950.191,96.107,574.193,569.919,0.0
56780.0,STARLINK-5963,PAYLOAD,2024-06-10 17:13:58,14.98330702,0.0003091,69.9989,150.6774,269.5304,90.5501,4.6745e-05,4.65e-06,0.0,0 STARLINK-5963,1 56780U 23078P   24162.71803700  .00000465  00000-0  46745-4 0  9992,2 56780  69.9989 150.6774 0003091 269.5304  90.5501 14.98330702 57526,6950.191,96.107,574.204,569.907,0.0
56780.0,STARLINK-5963,PAYLOAD,2024-06-11 09:15:18,14.98333592,0.000309,69.9988,148.9943,269.5456,90.5349,5.9094e-05,6.12e-06,0.0,0 STARLINK-5963,1 56780U 23078P   24163.38563442  .00000612  00000-0  59094-4 0  9997,2 56780  69.9988 148.9943 0003090 269.5456  90.5349 14.98333592 57362,6950.182,96.107,574.194,569.899,0.0
56780.0,STARLINK-5963,PAYLOAD,2024-06-12 04:28:55,14.98328214,0.0003034,69.999,146.9744,269.9453,90.1359,2.1014e-05,1.58e-06,0.0,0 STARLINK-5963,1 56780U 23078P   24164.18675925  .00000158  00000-0  21014-4 0  9992,2 56780  69.9990 146.9744 0003034 269.9453  90.1359 14.98328214 57745,6950.198,96.107,574.172,569.955,0.0
56780.0,STARLINK-5963,PAYLOAD,2024-06-12 06:05:04,14.98328464,0.0003014,69.999,146.8061,269.9179,90.1635,3.5776e-05,3.34e-06,0.0,0 STARLINK-5963,1 56780U 23078P   24164.25351879  .00000334  00000-0  35776-4 0  9995,2 56780  69.9990 146.8061 0003014 269.9179  90.1635 14.98328464 57495,6950.198,96.107,574.157,569.968,0.0
56780.0,STARLINK-5963,PAYLOAD,2024-06-12 15:41:52,14.98330309,0.0003011,69.999,145.7961,270.0627,90.0187,4.5508e-05,4.5e-06,0.0,0 STARLINK-5963,1 56780U 23078P   24164.65407725  .00000450  00000-0  45508-4 0  9994,2 56780  69.9990 145.7961 0003011 270.0627  90.0187 14.98330309 57559,6950.192,96.107,574.15,569.964,0.0
56780.0,STARLINK-5963,PAYLOAD,2024-06-13 04:30:56,14.98334452,0.0002998,69.999,144.4497,269.5166,90.565,5.7491e-05,5.93e-06,0.0,0 STARLINK-5963,1 56780U 23078P   24165.18815388  .00000593  00000-0  57491-4 0  9993,2 56780  69.9990 144.4497 0002998 269.5166  90.5650 14.98334452 57893,6950.179,96.107,574.128,569.96,0.0
56780.0,STARLINK-5963,PAYLOAD,2024-06-13 07:43:12,14.98334414,0.0002938,69.9991,144.1133,268.8294,91.2529,6.6527e-05,7.01e-06,0.0,0 STARLINK-5963,1 56780U 23078P   24165.32167347  .00000701  00000-0  66527-4 0  9995,2 56780  69.9991 144.1133 0002938 268.8294  91.2529 14.98334414 57651,6950.179,96.107,574.086,570.002,0.0
56780.0,STARLINK-5963,PAYLOAD,2024-06-13 15:43:53,14.9833114,0.0002931,69.9992,143.2717,269.2472,90.8351,3.8879e-05,3.71e-06,0.0,0 STARLINK-5963,1 56780U 23078P   24165.65547557  .00000371  00000-0  38879-4 0  9998,2 56780  69.9992 143.2717 0002931 269.2472  90.8351 14.98331140 57703,6950.189,96.107,574.091,570.017,0.0
56780.0,STARLINK-5963,PAYLOAD,2024-06-14 07:45:13,14.98329001,0.0002893,69.9993,141.5885,269.3756,90.7072,3.7933e-05,3.6e-06,0.0,0 STARLINK-5963,1 56780U 23078P   24166.32307765  .00000360  00000-0  37933-4 0  9996,2 56780  69.9993 141.5885 0002893 269.3756  90.7072 14.98329001 57807,6950.196,96.107,574.072,570.05,0.0
56780.0,STARLINK-5963,PAYLOAD,2024-06-15 07:47:14,14.98334369,0.0002871,69.9994,139.0639,269.1377,90.9453,3.0036e-05,2.65e-06,0.0,0 STARLINK-5963,1 56780U 23078P   24167.32447350  .00000265  00000-0  30036-4 0  9993,2 56780  69.9994 139.0639 0002871 269.1377  90.9453 14.98334369 57954,6950.179,96.107,574.04,570.049,0.0
56780.0,STARLINK-5963,PAYLOAD,2024-06-15 22:12:27,14.98329163,0.0002946,69.9991,137.5481,269.5322,90.5499,5.9478e-05,6.17e-06,0.0,0 STARLINK-5963,1 56780U 23078P   24167.92531500  .00000617  00000-0  59478-4 0  9992,2 56780  69.9991 137.5481 0002946 269.5322  90.5499 14.98329163 58049,6950.195,96.107,574.108,570.013,0.0
56780.0,STARLINK-5963,PAYLOAD,2024-06-16 07:49:15,14.98333082,0.0002949,69.9992,136.5386,270.484,89.5981,7.0828e-05,7.52e-06,0.0,0 STARLINK-5963,1 56780U 23078P   24168.32587232  .00000752  00000-0  70828-4 0  9992,2 56780  69.9992 136.5386 0002949 270.4840  89.5981 14.98333082 58108,6950.183,96.107,574.098,569.999,0.0
56780.0,STARLINK-5963,PAYLOAD,2024-06-16 22:14:28,14.98329275,0.0002898,69.9994,135.0241,270.2332,89.8495,-2.904e-05,-4.39e-06,0.0,0 STARLINK-5963,1 56780U 23078P   24168.92671745 -.00000439  00000-0 -29040-4 0  9995,2 56780  69.9994 135.0241 0002898 270.2332  89.8495 14.98329275 58192,6950.195,96.107,574.074,570.046,0.0
56780.0,STARLINK-5963,PAYLOAD,2024-06-17 22:16:28,14.98329955,0.0002631,70.0023,132.4997,271.3978,88.6879,5.8259e-05,6.02e-06,0.0,0 STARLINK-5963,1 56780U 23078P   24169.92811286  .00000602  00000-0  58259-4 0  9996,2 56780  70.0023 132.4997 0002631 271.3978  88.6879 14.98329955 58345,6950.193,96.107,573.887,570.229,0.0
56780.0,STARLINK-5963,PAYLOAD,2024-06-18 03:04:53,14.98326843,0.0002799,69.9996,131.994,264.2338,95.8502,-2.8257e-05,-4.3e-06,0.0,0 STARLINK-5963,1 56780U 23078P   24170.12839630 -.00000430  00000-0 -28257-4 0  9999,2 56780  69.9996 131.9940 0002799 264.2338  95.8502 14.98326843 58637,6950.203,96.107,574.013,570.122,0.0
56780.0,STARLINK-5963,PAYLOAD,2024-06-18 14:17:49,14.98330173,0.0002964,69.9996,130.8163,269.4018,90.6802,-7.9479e-05,-1.041e-05,0.0,0 STARLINK-5963,1 56780U 23078P   24170.59571673 -.00001041  00000-0 -79479-4 0  9991,2 56780  69.9996 130.8163 0002964 269.4018  90.6802 14.98330173 58444,6950.192,96.107,574.117,569.997,0.0
56780.0,STARLINK-5963,PAYLOAD,2024-06-18 20:42:22,14.9832496,0.0003165,69.999,130.1423,270.4512,89.6284,3.6596e-06,-4.9e-07,0.0,0 STARLINK-5963,1 56780U 23078P   24170.86275808 -.00000049  00000-0  36596-5 0  9992,2 56780  69.9990 130.1423 0003165 270.4512  89.6284 14.98324960 58488,6950.208,96.107,574.273,569.874,0.0
56780.0,STARLINK-5963,PAYLOAD,2024-06-19 03:06:54,14.98327855,0.0003149,69.9992,129.4695,268.8751,91.2047,4.4424e-05,4.37e-06,0.0,0 STARLINK-5963,1 56780U 23078P   24171.12979543  .00000437  00000-0  44424-4 0  9997,2 56780  69.9992 129.4695 0003149 268.8751  91.2047 14.98327855 58785,6950.2,96.107,574.253,569.876,0.0
56780.0,STARLINK-5963,PAYLOAD,2024-06-19 14:19:50,14.98338971,0.0003125,69.9994,128.291,270.995,89.0851,-9.4558e-05,-1.221e-05,0.0,0 STARLINK-5963,1 56780U 23078P   24171.59711102 -.00001221  00000-0 -94558-4 0  9990,2 56780  69.9994 128.2910 0003125 270.9950  89.0851 14.98338971 58591,6950.165,96.106,574.202,569.858,0.0
